{
  "links" : {
    "next" : "https://api.nasa.gov/neo/rest/v1/feed?start_date=2004-11-16&end_date=2004-11-16&detailed=true&api_key=t0TVs3DtDT2H8Oy2Zy8m2eVrNsAVKAexjcZXUckd",
    "prev" : "https://api.nasa.gov/neo/rest/v1/feed?start_date=2004-11-14&end_date=2004-11-14&detailed=true&api_key=t0TVs3DtDT2H8Oy2Zy8m2eVrNsAVKAexjcZXUckd",
    "self" : "https://api.nasa.gov/neo/rest/v1/feed?start_date=2004-11-15&end_date=2004-11-15&detailed=true&api_key=t0TVs3DtDT2H8Oy2Zy8m2eVrNsAVKAexjcZXUckd"
  },
  "element_count" : 4,
  "near_earth_objects" : {
    "2004-11-15" : [ {
      "links" : {
        "self" : "https://api.nasa.gov/neo/rest/v1/neo/3261680?api_key=t0TVs3DtDT2H8Oy2Zy8m2eVrNsAVKAexjcZXUckd"
      },
      "neo_reference_id" : "3261680",
      "name" : "(2004 VH1)",
      "nasa_jpl_url" : "http://ssd.jpl.nasa.gov/sbdb.cgi?sstr=3261680",
      "absolute_magnitude_h" : 21.8,
      "estimated_diameter" : {
        "kilometers" : {
          "estimated_diameter_min" : 0.1160259082,
          "estimated_diameter_max" : 0.2594418179
        },
        "meters" : {
          "estimated_diameter_min" : 116.0259082094,
          "estimated_diameter_max" : 259.4418179074
        },
        "miles" : {
          "estimated_diameter_min" : 0.0720951346,
          "estimated_diameter_max" : 0.1612096218
        },
        "feet" : {
          "estimated_diameter_min" : 380.6624406898,
          "estimated_diameter_max" : 851.1870938635
        }
      },
      "is_potentially_hazardous_asteroid" : false,
      "close_approach_data" : [ {
        "close_approach_date" : "2004-11-15",
        "epoch_date_close_approach" : 1100505600000,
        "relative_velocity" : {
          "kilometers_per_second" : "19.6998572785",
          "kilometers_per_hour" : "70919.4862024643",
          "miles_per_hour" : "44066.6107461923"
        },
        "miss_distance" : {
          "astronomical" : "0.161467652",
          "lunar" : "62.8109169006",
          "kilometers" : "24155218",
          "miles" : "15009356"
        },
        "orbiting_body" : "Earth"
      } ],
      "orbital_data" : {
        "orbit_id" : "11",
        "orbit_determination_date" : "2017-04-06 09:11:55",
        "orbit_uncertainty" : "9",
        "minimum_orbit_intersection" : ".150757",
        "jupiter_tisserand_invariant" : "4.161",
        "epoch_osculation" : "2453318.5",
        "eccentricity" : ".471976104624185",
        "semi_major_axis" : "1.552681307750132",
        "inclination" : "32.8110546237098",
        "ascending_node_longitude" : "43.40348447452014",
        "orbital_period" : "706.6785575802613",
        "perihelion_distance" : ".8198528323954394",
        "perihelion_argument" : "88.56848085330657",
        "aphelion_distance" : "2.285509783104825",
        "perihelion_time" : "2453387.323609065277",
        "mean_anomaly" : "324.939506091232",
        "mean_motion" : ".5094253902830678",
        "equinox" : "J2000"
      }
    }, {
      "links" : {
        "self" : "https://api.nasa.gov/neo/rest/v1/neo/2138852?api_key=t0TVs3DtDT2H8Oy2Zy8m2eVrNsAVKAexjcZXUckd"
      },
      "neo_reference_id" : "2138852",
      "name" : "138852 (2000 WN10)",
      "nasa_jpl_url" : "http://ssd.jpl.nasa.gov/sbdb.cgi?sstr=2138852",
      "absolute_magnitude_h" : 20.2,
      "estimated_diameter" : {
        "kilometers" : {
          "estimated_diameter_min" : 0.2424124811,
          "estimated_diameter_max" : 0.5420507863
        },
        "meters" : {
          "estimated_diameter_min" : 242.4124811008,
          "estimated_diameter_max" : 542.0507863358
        },
        "miles" : {
          "estimated_diameter_min" : 0.1506280858,
          "estimated_diameter_max" : 0.3368146392
        },
        "feet" : {
          "estimated_diameter_min" : 795.3165644948,
          "estimated_diameter_max" : 1778.3819018419
        }
      },
      "is_potentially_hazardous_asteroid" : false,
      "close_approach_data" : [ {
        "close_approach_date" : "2004-11-15",
        "epoch_date_close_approach" : 1100505600000,
        "relative_velocity" : {
          "kilometers_per_second" : "12.3588012345",
          "kilometers_per_hour" : "44491.684444362",
          "miles_per_hour" : "27645.4024815537"
        },
        "miss_distance" : {
          "astronomical" : "0.1728372815",
          "lunar" : "67.2337036133",
          "kilometers" : "25856090",
          "miles" : "16066230"
        },
        "orbiting_body" : "Earth"
      } ],
      "orbital_data" : {
        "orbit_id" : "184",
        "orbit_determination_date" : "2017-04-06 09:27:44",
        "orbit_uncertainty" : "0",
        "minimum_orbit_intersection" : ".126152",
        "jupiter_tisserand_invariant" : "5.976",
        "epoch_osculation" : "2455791.5",
        "eccentricity" : ".2989783053263816",
        "semi_major_axis" : "1.001279870798668",
        "inclination" : "21.48186836899148",
        "ascending_node_longitude" : "60.96973558511647",
        "orbital_period" : "365.9583451042971",
        "perihelion_distance" : ".7019189118698638",
        "perihelion_argument" : "225.1315602381134",
        "aphelion_distance" : "1.300640829727472",
        "perihelion_time" : "2455783.871034707124",
        "mean_anomaly" : "7.504754413108508",
        "mean_motion" : ".9837185155523672",
        "equinox" : "J2000"
      }
    }, {
      "links" : {
        "self" : "https://api.nasa.gov/neo/rest/v1/neo/3608823?api_key=t0TVs3DtDT2H8Oy2Zy8m2eVrNsAVKAexjcZXUckd"
      },
      "neo_reference_id" : "3608823",
      "name" : "(2012 SU9)",
      "nasa_jpl_url" : "http://ssd.jpl.nasa.gov/sbdb.cgi?sstr=3608823",
      "absolute_magnitude_h" : 27.2,
      "estimated_diameter" : {
        "kilometers" : {
          "estimated_diameter_min" : 0.0096506147,
          "estimated_diameter_max" : 0.0215794305
        },
        "meters" : {
          "estimated_diameter_min" : 9.6506146958,
          "estimated_diameter_max" : 21.5794304844
        },
        "miles" : {
          "estimated_diameter_min" : 0.0059966121,
          "estimated_diameter_max" : 0.0134088323
        },
        "feet" : {
          "estimated_diameter_min" : 31.6621227185,
          "estimated_diameter_max" : 70.7986587106
        }
      },
      "is_potentially_hazardous_asteroid" : false,
      "close_approach_data" : [ {
        "close_approach_date" : "2004-11-15",
        "epoch_date_close_approach" : 1100505600000,
        "relative_velocity" : {
          "kilometers_per_second" : "8.9029751898",
          "kilometers_per_hour" : "32050.7106833304",
          "miles_per_hour" : "19915.065202095"
        },
        "miss_distance" : {
          "astronomical" : "0.2756710135",
          "lunar" : "107.2360229492",
          "kilometers" : "41239796",
          "miles" : "25625222"
        },
        "orbiting_body" : "Earth"
      } ],
      "orbital_data" : {
        "orbit_id" : "7",
        "orbit_determination_date" : "2017-04-06 08:48:55",
        "orbit_uncertainty" : "7",
        "minimum_orbit_intersection" : ".00396247",
        "jupiter_tisserand_invariant" : "6.385",
        "epoch_osculation" : "2458000.5",
        "eccentricity" : ".3601241569688025",
        "semi_major_axis" : ".9297454068141836",
        "inclination" : ".4952217100602064",
        "ascending_node_longitude" : "323.4926064565487",
        "orbital_period" : "327.4496187621624",
        "perihelion_distance" : ".5949216259896094",
        "perihelion_argument" : "264.2658160994401",
        "aphelion_distance" : "1.264569187638758",
        "perihelion_time" : "2458072.033206990197",
        "mean_anomaly" : "281.3559795432977",
        "mean_motion" : "1.099405769232182",
        "equinox" : "J2000"
      }
    }, {
      "links" : {
        "self" : "https://api.nasa.gov/neo/rest/v1/neo/3698845?api_key=t0TVs3DtDT2H8Oy2Zy8m2eVrNsAVKAexjcZXUckd"
      },
      "neo_reference_id" : "3698845",
      "name" : "(2014 WU202)",
      "nasa_jpl_url" : "http://ssd.jpl.nasa.gov/sbdb.cgi?sstr=3698845",
      "absolute_magnitude_h" : 26.8,
      "estimated_diameter" : {
        "kilometers" : {
          "estimated_diameter_min" : 0.0116025908,
          "estimated_diameter_max" : 0.0259441818
        },
        "meters" : {
          "estimated_diameter_min" : 11.6025908209,
          "estimated_diameter_max" : 25.9441817907
        },
        "miles" : {
          "estimated_diameter_min" : 0.0072095135,
          "estimated_diameter_max" : 0.0161209622
        },
        "feet" : {
          "estimated_diameter_min" : 38.066244069,
          "estimated_diameter_max" : 85.1187093863
        }
      },
      "is_potentially_hazardous_asteroid" : false,
      "close_approach_data" : [ {
        "close_approach_date" : "2004-11-15",
        "epoch_date_close_approach" : 1100505600000,
        "relative_velocity" : {
          "kilometers_per_second" : "10.7628694444",
          "kilometers_per_hour" : "38746.329999754",
          "miles_per_hour" : "24075.4626601249"
        },
        "miss_distance" : {
          "astronomical" : "0.1459697113",
          "lunar" : "56.7822189331",
          "kilometers" : "21836760",
          "miles" : "13568733"
        },
        "orbiting_body" : "Earth"
      } ],
      "orbital_data" : {
        "orbit_id" : "4",
        "orbit_determination_date" : "2017-04-06 08:37:12",
        "orbit_uncertainty" : "7",
        "minimum_orbit_intersection" : ".0162078",
        "jupiter_tisserand_invariant" : "4.685",
        "epoch_osculation" : "2458000.5",
        "eccentricity" : ".3162384369003838",
        "semi_major_axis" : "1.40238470737737",
        "inclination" : "8.232405169794704",
        "ascending_node_longitude" : "64.90213785171075",
        "orbital_period" : "606.5954909902614",
        "perihelion_distance" : ".9588967595833483",
        "perihelion_argument" : "37.2089905072626",
        "aphelion_distance" : "1.845872655171391",
        "perihelion_time" : "2458233.634291691272",
        "mean_anomaly" : "221.6403414541614",
        "mean_motion" : ".593476221546427",
        "equinox" : "J2000"
      }
    } ]
  }
}